[{"OBJECT_NAME":"STARLINK-5879","OBJECT_ID":"2023-090BE","EPOCH":"2026-03-09T13:57:51.878016","MEAN_MOTION":15.0253352,"ECCENTRICITY":0.0001355,"INCLINATION":43.0021,"RA_OF_ASC_NODE":249.4964,"ARG_OF_PERICENTER":275.3502,"MEAN_ANOMALY":84.7185,"EPHEMERIS_TYPE":0,"CLASSIFICATION_TYPE":"U","NORAD_CAT_ID":57153,"ELEMENT_SET_NO":999,"REV_AT_EPOCH":15019,"BSTAR":2.3686e-5,"MEAN_MOTION_DOT":1.16e-6,"MEAN_MOTION_DDOT":0},{"OBJECT_NAME":"CZ-6A R\/B","OBJECT_ID":"2023-168B","EPOCH":"2026-03-09T21:13:08.722272","MEAN_MOTION":15.16100791,"ECCENTRICITY":0.00607667,"INCLINATION":97.7542,"RA_OF_ASC_NODE":104.7688,"ARG_OF_PERICENTER":339.2379,"MEAN_ANOMALY":20.6386,"EPHEMERIS_TYPE":0,"CLASSIFICATION_TYPE":"U","NORAD_CAT_ID":58200,"ELEMENT_SET_NO":999,"REV_AT_EPOCH":12979,"BSTAR":0.00029693841,"MEAN_MOTION_DOT":5.919e-5,"MEAN_MOTION_DDOT":0}]
